{"type": "FeatureCollection", "features": [ {"type": "Feature", "properties": {"norad_id": 38068, "name": "COSMOS 2251 DEB", "group": "cosmos-2251-debris", "lat": 40.94540548132826, "lon": 119.07486186678027, "alt_km": 769.2507415023028, "timestamp": "2025-12-09T21:34:11.807721+00:00", "meta": {"OBJECT_NAME": "COSMOS 2251 DEB", "OBJECT_ID": "1993-036BSA", "EPOCH": "2025-11-26T00:12:22.263264", "MEAN_MOTION": 14.35960004, "ECCENTRICITY": 0.00240903, "INCLINATION": 74.0219, "RA_OF_ASC_NODE": 338.9788, "ARG_OF_PERICENTER": 72.1007, "MEAN_ANOMALY": 288.2769, "EPHEMERIS_TYPE": 0, "CLASSIFICATION_TYPE": "U", "NORAD_CAT_ID": 38068, "ELEMENT_SET_NO": 999, "REV_AT_EPOCH": 66406, "BSTAR": 0.00028750999, "MEAN_MOTION_DOT": 8.11e-06, "MEAN_MOTION_DDOT": 0}, "tle": {"line1": "1 38068U 93036BSA 25330.00859101  .00000811  00000+0  28751-3 0  9998", "line2": "2 38068  74.0219 338.9788 0024090  72.1007 288.2769 14.35960004664064"}}, "geometry": {"type": "Point", "coordinates": [119.07486186678027, 40.94540548132826]}}, {"type": "Feature", "properties": {"norad_id": 38197, "name": "COSMOS 2251 DEB", "group": "cosmos-2251-debris", "lat": 72.33452475072805, "lon": 117.84731982102598, "alt_km": 713.0678209899861, "timestamp": "2025-12-09T21:34:11.807731+00:00", "meta": {"OBJECT_NAME": "COSMOS 2251 DEB", "OBJECT_ID": "1993-036BSM", "EPOCH": "2025-12-08T19:03:08.420544", "MEAN_MOTION": 14.73659772, "ECCENTRICITY": 0.01272107, "INCLINATION": 73.9375, "RA_OF_ASC_NODE": 4.7948, "ARG_OF_PERICENTER": 243.2589, "MEAN_ANOMALY": 115.552, "EPHEMERIS_TYPE": 0, "CLASSIFICATION_TYPE": "U", "NORAD_CAT_ID": 38197, "ELEMENT_SET_NO": 999, "REV_AT_EPOCH": 85697, "BSTAR": 0.0065046848, "MEAN_MOTION_DOT": 0.00048579, "MEAN_MOTION_DDOT": 0}, "tle": {"line1": "1 38197U 93036BSM 25342.79384746  .00048579  00000+0  65047-2 0  9999", "line2": "2 38197  73.9375   4.7948 0127210 243.2589 115.5520 14.73659772856977"}}, "geometry": {"type": "Point", "coordinates": [117.84731982102598, 72.33452475072805]}}, {"type": "Feature", "properties": {"norad_id": 38199, "name": "COSMOS 2251 DEB", "group": "cosmos-2251-debris", "lat": -71.72855144865466, "lon": 6.219006048548609, "alt_km": 945.4573532529948, "timestamp": "2025-12-09T21:34:11.807742+00:00", "meta": {"OBJECT_NAME": "COSMOS 2251 DEB", "OBJECT_ID": "1993-036BSP", "EPOCH": "2025-12-09T13:08:57.602688", "MEAN_MOTION": 13.64788419, "ECCENTRICITY": 0.03694992, "INCLINATION": 73.956, "RA_OF_ASC_NODE": 67.4327, "ARG_OF_PERICENTER": 354.5631, "MEAN_ANOMALY": 5.1515, "EPHEMERIS_TYPE": 0, "CLASSIFICATION_TYPE": "U", "NORAD_CAT_ID": 38199, "ELEMENT_SET_NO": 999, "REV_AT_EPOCH": 60978, "BSTAR": 0.00073909299, "MEAN_MOTION_DOT": 9.26e-06, "MEAN_MOTION_DDOT": 0}, "tle": {"line1": "1 38199U 93036BSP 25343.54788892  .00000926  00000+0  73909-3 0  9996", "line2": "2 38199  73.9560  67.4327 0369499 354.5631   5.1515 13.64788419609786"}}, "geometry": {"type": "Point", "coordinates": [6.219006048548609, -71.72855144865466]}}, {"type": "Feature", "properties": {"norad_id": 38208, "name": "COSMOS 2251 DEB", "group": "cosmos-2251-debris", "lat": -50.69212129269124, "lon": 64.04247913991682, "alt_km": 625.6251216340379, "timestamp": "2025-12-09T21:34:11.807752+00:00", "meta": {"OBJECT_NAME": "COSMOS 2251 DEB", "OBJECT_ID": "1993-036BSY", "EPOCH": "2025-12-09T13:47:05.670816", "MEAN_MOTION": 14.8367688, "ECCENTRICITY": 0.00026438, "INCLINATION": 74.0057, "RA_OF_ASC_NODE": 85.1942, "ARG_OF_PERICENTER": 169.4562, "MEAN_ANOMALY": 205.1363, "EPHEMERIS_TYPE": 0, "CLASSIFICATION_TYPE": "U", "NORAD_CAT_ID": 38208, "ELEMENT_SET_NO": 999, "REV_AT_EPOCH": 71112, "BSTAR": 0.0035260119, "MEAN_MOTION_DOT": 0.00029227, "MEAN_MOTION_DDOT": 0}, "tle": {"line1": "1 38208U 93036BSY 25343.57437119  .00029227  00000+0  35260-2 0  9995", "line2": "2 38208  74.0057  85.1942 0002643 169.4562 205.1363 14.83676880711126"}}, "geometry": {"type": "Point", "coordinates": [64.04247913991682, -50.69212129269124]}}, {"type": "Feature", "properties": {"norad_id": 38212, "name": "COSMOS 2251 DEB", "group": "cosmos-2251-debris", "lat": -38.452482527002935, "lon": 69.04694275258558, "alt_km": 706.8451262974686, "timestamp": "2025-12-09T21:34:11.807762+00:00", "meta": {"OBJECT_NAME": "COSMOS 2251 DEB", "OBJECT_ID": "1993-036BTC", "EPOCH": "2025-12-08T13:15:26.464032", "MEAN_MOTION": 14.77639869, "ECCENTRICITY": 0.0092747, "INCLINATION": 74.0522, "RA_OF_ASC_NODE": 84.8103, "ARG_OF_PERICENTER": 153.0073, "MEAN_ANOMALY": 207.5971, "EPHEMERIS_TYPE": 0, "CLASSIFICATION_TYPE": "U", "NORAD_CAT_ID": 38212, "ELEMENT_SET_NO": 999, "REV_AT_EPOCH": 81248, "BSTAR": 0.00080388, "MEAN_MOTION_DOT": 6.149e-05, "MEAN_MOTION_DDOT": 0}, "tle": {"line1": "1 38212U 93036BTC 25342.55238963  .00006149  00000+0  80388-3 0  9993", "line2": "2 38212  74.0522  84.8103 0092747 153.0073 207.5971 14.77639869812484"}}, "geometry": {"type": "Point", "coordinates": [69.04694275258558, -38.452482527002935]}}, {"type": "Feature", "properties": {"norad_id": 38220, "name": "COSMOS 2251 DEB", "group": "cosmos-2251-debris", "lat": -43.91383226431157, "lon": 57.98936613829324, "alt_km": 596.9389152998738, "timestamp": "2025-12-09T21:34:11.807772+00:00", "meta": {"OBJECT_NAME": "COSMOS 2251 DEB", "OBJECT_ID": "1993-036BTL", "EPOCH": "2025-12-09T13:44:00.256416", "MEAN_MOTION": 14.92597011, "ECCENTRICITY": 0.00042936, "INCLINATION": 74.0143, "RA_OF_ASC_NODE": 74.6677, "ARG_OF_PERICENTER": 60.9042, "MEAN_ANOMALY": 299.257, "EPHEMERIS_TYPE": 0, "CLASSIFICATION_TYPE": "U", "NORAD_CAT_ID": 38220, "ELEMENT_SET_NO": 999, "REV_AT_EPOCH": 71323, "BSTAR": 0.0041514904, "MEAN_MOTION_DOT": 0.00042967, "MEAN_MOTION_DDOT": 0}, "tle": {"line1": "1 38220U 93036BTL 25343.57222519  .00042967  00000+0  41515-2 0  9991", "line2": "2 38220  74.0143  74.6677 0004293  60.9042 299.2570 14.92597011713231"}}, "geometry": {"type": "Point", "coordinates": [57.98936613829324, -43.91383226431157]}}, {"type": "Feature", "properties": {"norad_id": 38479, "name": "COSMOS 2251 DEB", "group": "cosmos-2251-debris", "lat": -71.3029004331127, "lon": 131.587156764015, "alt_km": 714.4801336850596, "timestamp": "2025-12-09T21:34:11.807782+00:00", "meta": {"OBJECT_NAME": "COSMOS 2251 DEB", "OBJECT_ID": "1993-036BTP", "EPOCH": "2025-12-07T08:59:39.442848", "MEAN_MOTION": 14.38206673, "ECCENTRICITY": 0.00841346, "INCLINATION": 74.0062, "RA_OF_ASC_NODE": 194.1851, "ARG_OF_PERICENTER": 304.3945, "MEAN_ANOMALY": 232.7575, "EPHEMERIS_TYPE": 0, "CLASSIFICATION_TYPE": "U", "NORAD_CAT_ID": 38479, "ELEMENT_SET_NO": 999, "REV_AT_EPOCH": 64610, "BSTAR": 0.0026377804, "MEAN_MOTION_DOT": 8.33e-05, "MEAN_MOTION_DDOT": 0}, "tle": {"line1": "1 38479U 93036BTP 25341.37476207  .00008330  00000+0  26378-2 0  9994", "line2": "2 38479  74.0062 194.1851 0084134 304.3945 232.7575 14.38206673646107"}}, "geometry": {"type": "Point", "coordinates": [131.587156764015, -71.3029004331127]}}, {"type": "Feature", "properties": {"norad_id": 38481, "name": "COSMOS 2251 DEB", "group": "cosmos-2251-debris", "lat": -73.5061609512938, "lon": -90.79865164835222, "alt_km": 800.9388132405875, "timestamp": "2025-12-09T21:34:11.807793+00:00", "meta": {"OBJECT_NAME": "COSMOS 2251 DEB", "OBJECT_ID": "1993-036BTR", "EPOCH": "2025-12-07T20:04:54.972768", "MEAN_MOTION": 13.94787579, "ECCENTRICITY": 0.0233704, "INCLINATION": 73.9329, "RA_OF_ASC_NODE": 16.0313, "ARG_OF_PERICENTER": 317.436, "MEAN_ANOMALY": 40.8857, "EPHEMERIS_TYPE": 0, "CLASSIFICATION_TYPE": "U", "NORAD_CAT_ID": 38481, "ELEMENT_SET_NO": 999, "REV_AT_EPOCH": 58992, "BSTAR": 0.0025212109, "MEAN_MOTION_DOT": 4.22e-05, "MEAN_MOTION_DDOT": 0}, "tle": {"line1": "1 38481U 93036BTR 25341.83674737  .00004220  00000+0  25212-2 0  9996", "line2": "2 38481  73.9329  16.0313 0233704 317.4360  40.8857 13.94787579589921"}}, "geometry": {"type": "Point", "coordinates": [-90.79865164835222, -73.5061609512938]}}, {"type": "Feature", "properties": {"norad_id": 38483, "name": "COSMOS 2251 DEB", "group": "cosmos-2251-debris", "lat": 21.61800461128683, "lon": 23.250701990932683, "alt_km": 809.0262939312152, "timestamp": "2025-12-09T21:34:11.807803+00:00", "meta": {"OBJECT_NAME": "COSMOS 2251 DEB", "OBJECT_ID": "1993-036BTT", "EPOCH": "2025-12-05T09:54:51.547104", "MEAN_MOTION": 14.28743518, "ECCENTRICITY": 0.01115299, "INCLINATION": 74.2614, "RA_OF_ASC_NODE": 24.8593, "ARG_OF_PERICENTER": 132.5252, "MEAN_ANOMALY": 228.5384, "EPHEMERIS_TYPE": 0, "CLASSIFICATION_TYPE": "U", "NORAD_CAT_ID": 38483, "ELEMENT_SET_NO": 999, "REV_AT_EPOCH": 63373, "BSTAR": 0.0016991918, "MEAN_MOTION_DOT": 4.552e-05, "MEAN_MOTION_DDOT": 0}, "tle": {"line1": "1 38483U 93036BTT 25339.41309661  .00004552  00000+0  16992-2 0  9993", "line2": "2 38483  74.2614  24.8593 0111529 132.5252 228.5384 14.28743518633739"}}, "geometry": {"type": "Point", "coordinates": [23.250701990932683, 21.61800461128683]}}, {"type": "Feature", "properties": {"norad_id": 38486, "name": "COSMOS 2251 DEB", "group": "cosmos-2251-debris", "lat": -73.92606939906283, "lon": 121.79234946419189, "alt_km": 656.0631541034554, "timestamp": "2025-12-09T21:34:11.807813+00:00", "meta": {"OBJECT_NAME": "COSMOS 2251 DEB", "OBJECT_ID": "1993-036BTW", "EPOCH": "2025-12-09T09:44:58.569216", "MEAN_MOTION": 14.73093158, "ECCENTRICITY": 0.0030131, "INCLINATION": 73.9406, "RA_OF_ASC_NODE": 211.3897, "ARG_OF_PERICENTER": 356.1257, "MEAN_ANOMALY": 183.7867, "EPHEMERIS_TYPE": 0, "CLASSIFICATION_TYPE": "U", "NORAD_CAT_ID": 38486, "ELEMENT_SET_NO": 999, "REV_AT_EPOCH": 75385, "BSTAR": 0.0034479645, "MEAN_MOTION_DOT": 0.00022398, "MEAN_MOTION_DDOT": 0}, "tle": {"line1": "1 38486U 93036BTW 25343.40623344  .00022398  00000+0  34480-2 0  9997", "line2": "2 38486  73.9406 211.3897 0030131 356.1257 183.7867 14.73093158753857"}}, "geometry": {"type": "Point", "coordinates": [121.79234946419189, -73.92606939906283]}}]}